NORAD_CAT_ID,OBJECT_NAME,OBJECT_TYPE,EPOCH,MEAN_MOTION,ECCENTRICITY,INCLINATION,RA_OF_ASC_NODE,ARG_OF_PERICENTER,MEAN_ANOMALY,BSTAR,MEAN_MOTION_DOT,MEAN_MOTION_DDOT,TLE_LINE0,TLE_LINE1,TLE_LINE2,SEMIMAJOR_AXIS,PERIOD,APOGEE,PERIGEE,DECAYED
54201.0,STARLINK-5199,PAYLOAD,2022-11-25 22:00:00,15.73252515,0.0003608,53.2169,0.9835,10.7803,191.8594,-0.00011108,-0.00016225,0.0,0 STARLINK-5199,1 54201U 22141AW  22329.91667824 -.00016225  00000-0 -11108-3 0  9995,2 54201  53.2169   0.9835 0003608  10.7803 191.8594 15.73252515  1308,6727.745,91.53,352.038,347.18300000000005,0.0
54201.0,STARLINK-5199,PAYLOAD,2022-11-26 04:00:00,15.73269882,0.0003546,53.2169,359.7467,10.7098,168.6637,-0.00032708,-0.00046429,0.0,0 STARLINK-5199,1 54201U 22141AW  22330.16667824 -.00046429  00000-0 -32708-3 0  9992,2 54201  53.2169 359.7467 0003546  10.7098 168.6637 15.73269882  4848,6727.696,91.529,351.94699999999995,347.175,0.0
54201.0,STARLINK-5199,PAYLOAD,2022-11-26 14:00:01,15.73221402,0.0003864,53.2162,357.6863,5.5805,15.0196,9.3391e-05,0.00012519,0.0,0 STARLINK-5199,1 54201U 22141AW  22330.58334491  .00012519  00000-0  93391-4 0  9996,2 54201  53.2162 357.6863 0003864   5.5805  15.0196 15.73221402  1308,6727.834,91.532,352.2990000000001,347.1,0.0
54201.0,STARLINK-5199,PAYLOAD,2022-11-26 22:00:00,15.73183896,0.0003546,53.2165,356.0345,2.2856,107.2892,-0.0001447,-0.00020874,0.0,0 STARLINK-5199,1 54201U 22141AW  22330.91667824 -.00020874  00000-0 -14470-3 0  9997,2 54201  53.2165 356.0345 0003546   2.2856 107.2892 15.73183896  1307,6727.941,91.534,352.19199999999995,347.42,0.0
54201.0,STARLINK-5199,PAYLOAD,2022-11-27 06:00:00,15.7319025,0.00037,53.2168,354.386,1.2317,197.2457,-0.00052836,-0.00074127,0.0,0 STARLINK-5199,1 54201U 22141AW  22331.25001157 -.00074127  00000-0 -52836-3 0  9994,2 54201  53.2168 354.3860 0003700   1.2317 197.2457 15.73190250  5016,6727.9230000000025,91.534,352.277,347.2990000000001,0.0
54201.0,STARLINK-5199,PAYLOAD,2022-11-27 14:00:01,15.73128971,0.0003942,53.2167,352.7374,359.4007,287.9575,0.00048734,0.00068144,0.0,0 STARLINK-5199,1 54201U 22141AW  22331.58334491  .00068144  00000-0  48734-3 0  9992,2 54201  53.2167 352.7374 0003942 359.4007 287.9575 15.73128971  1306,6728.098000000001,91.537,352.615,347.31,0.0
54201.0,STARLINK-5199,PAYLOAD,2022-11-27 22:00:00,15.73147859,0.0003703,53.2167,351.086,0.6869,15.5533,0.00068558,0.00096517,0.0,0 STARLINK-5199,1 54201U 22141AW  22331.91667824  .00096517  00000-0  68558-3 0  9999,2 54201  53.2167 351.0860 0003703   0.6869  15.5533 15.73147859  5123,6728.044,91.536,352.4,347.417,0.0
54201.0,STARLINK-5199,PAYLOAD,2022-11-28 14:00:01,15.73186903,0.0003992,53.216,347.7891,359.8398,194.2488,0.00042316,0.00059172,0.0,0 STARLINK-5199,1 54201U 22141AW  22332.58334491  .00059172  00000-0  42316-3 0  9994,2 54201  53.2160 347.7891 0003992 359.8398 194.2488 15.73186903  5226,6727.933000000001,91.534,352.483,347.112,0.0
54201.0,STARLINK-5199,PAYLOAD,2022-11-28 22:00:01,15.73216218,0.0003757,53.2163,346.1375,1.4602,281.6379,0.00045329,0.0006354,0.0,0 STARLINK-5199,1 54201U 22141AW  22332.91668981  .00063540  00000-0  45329-3 0  9996,2 54201  53.2163 346.1375 0003757   1.4602 281.6379 15.73216218  1304,6727.849,91.532,352.242,347.186,0.0
54201.0,STARLINK-5199,PAYLOAD,2022-11-29 06:00:00,15.73267472,0.0003913,53.2166,344.4894,4.0004,8.001,-0.00086727,-0.00121018,0.0,0 STARLINK-5199,1 54201U 22141AW  22333.25001157 -.00121018  00000-0 -86727-3 0  9994,2 54201  53.2166 344.4894 0003913   4.0004   8.0010 15.73267472  5331,6727.703,91.529,352.2,346.935,0.0
54201.0,STARLINK-5199,PAYLOAD,2022-11-29 14:00:01,15.73190924,0.0004095,53.2165,342.8402,1.4856,99.537,-0.0003714,-0.00052431,0.0,0 STARLINK-5199,1 54201U 22141AW  22333.58335648 -.00052431  00000-0 -37140-3 0  9992,2 54201  53.2165 342.8402 0004095   1.4856  99.5370 15.73190924  1309,6727.920999999999,91.534,352.541,347.031,0.0
54201.0,STARLINK-5199,PAYLOAD,2022-11-29 22:00:00,15.73128583,0.000385,53.2164,341.1891,1.4212,188.4388,0.00069503,0.00097792,0.0,0 STARLINK-5199,1 54201U 22141AW  22333.91667824  .00097792  00000-0  69503-3 0  9998,2 54201  53.2164 341.1891 0003850   1.4212 188.4388 15.73128583  5433,6728.099,91.537,352.55400000000014,347.37300000000016,0.0
54201.0,STARLINK-5199,PAYLOAD,2022-11-30 14:00:01,15.73267495,0.0004174,53.2159,337.8893,2.8746,4.863,-0.0007064,-0.00098949,0.0,0 STARLINK-5199,1 54201U 22141AW  22334.58335648 -.00098949  00000-0 -70640-3 0  9999,2 54201  53.2159 337.8893 0004174   2.8746   4.8630 15.73267495  5547,6727.703,91.529,352.376,346.76,0.0
54201.0,STARLINK-5199,PAYLOAD,2022-11-30 22:00:00,15.73125934,0.0003903,53.2166,336.2345,6.1754,90.4842,0.00068374,0.00096165,0.0,0 STARLINK-5199,1 54201U 22141AW  22334.91667824  .00096165  00000-0  68374-3 0  9997,2 54201  53.2166 336.2345 0003903   6.1754  90.4842 15.73125934  1302,6728.106,91.537,352.597,347.345,0.0
54201.0,STARLINK-5199,PAYLOAD,2022-12-01 06:00:00,15.73178434,0.0004121,53.2164,334.5921,6.6647,178.8991,0.00020488,0.00028212,0.0,0 STARLINK-5199,1 54201U 22141AW  22335.25001157  .00028212  00000-0  20488-3 0  9998,2 54201  53.2164 334.5921 0004121   6.6647 178.8991 15.73178434  5640,6727.956999999999,91.534,352.594,347.0490000000001,0.0
54201.0,STARLINK-5199,PAYLOAD,2022-12-01 14:00:01,15.73266533,0.0004141999999999,53.2158,332.9434,5.642,268.8632,-0.00055274,-0.00077749,0.0,0 STARLINK-5199,1 54201U 22141AW  22335.58334491 -.00077749  00000-0 -55274-3 0  9996,2 54201  53.2158 332.9434 0004142   5.6420 268.8632 15.73266533  1304,6727.705,91.529,352.357,346.784,0.0
54201.0,STARLINK-5199,PAYLOAD,2022-12-01 20:00:01,15.73179433,0.0003997,53.2159,331.7047,5.6453,245.6974,0.00058054,0.00081604,0.0,0 STARLINK-5199,1 54201U 22141AW  22335.83335648  .00081604  00000-0  58054-3 0  9991,2 54201  53.2159 331.7047 0003997   5.6453 245.6974 15.73179433  5730,6727.954000000002,91.534,352.5080000000001,347.13,0.0
54201.0,STARLINK-5199,PAYLOAD,2022-12-01 22:00:00,15.73206952,0.0003964,53.2158,331.2921,5.6616,357.842,0.0002639,0.00036599,0.0,0 STARLINK-5199,1 54201U 22141AW  22335.91667824  .00036599  00000-0  26390-3 0  9995,2 54201  53.2158 331.2921 0003964   5.6616 357.8420 15.73206952  1308,6727.875,91.533,352.407,347.0730000000001,0.0
54201.0,STARLINK-5199,PAYLOAD,2022-12-02 06:00:00,15.73213023,0.0004149,53.2154,329.6446,4.8819,87.5762,-8.1017e-05,-0.00011991,0.0,0 STARLINK-5199,1 54201U 22141AW  22336.25001157 -.00011991  00000-0 -81017-4 0  9993,2 54201  53.2154 329.6446 0004149   4.8819  87.5762 15.73213023  5801,6727.858,91.532,352.514,346.932,0.0
54201.0,STARLINK-5199,PAYLOAD,2022-12-02 14:00:01,15.73204752,0.0004154,53.2149,327.9947,2.2901,179.1041,-0.00016837,-0.00024204,0.0,0 STARLINK-5199,1 54201U 22141AW  22336.58334491 -.00024204  00000-0 -16837-3 0  9997,2 54201  53.2149 327.9947 0004154   2.2901 179.1041 15.73204752  1300,6727.882,91.533,352.541,346.952,0.0
54201.0,STARLINK-5199,PAYLOAD,2022-12-02 22:00:00,15.73161263,0.0003918,53.215,326.3435,1.1979,269.1249,0.00018686,0.00025647,0.0,0 STARLINK-5199,1 54201U 22141AW  22336.91667824  .00025647  00000-0  18686-3 0  9997,2 54201  53.2150 326.3435 0003918   1.1979 269.1249 15.73161263  1306,6728.005999999999,91.535,352.50699999999995,347.235,0.0
54201.0,STARLINK-5199,PAYLOAD,2022-12-03 14:00:01,15.73335362,0.000431,53.2158,323.0423,1.7855,86.3409,-0.0019316,-0.00265094,0.0,0 STARLINK-5199,1 54201U 22141AW  22337.58334491 -.00265094  00000-0 -19316-2 0  9996,2 54201  53.2158 323.0423 0004310   1.7855  86.3409 15.73335362  6014,6727.509,91.525,352.274,346.475,0.0
54201.0,STARLINK-5199,PAYLOAD,2022-12-03 22:00:00,15.73223666,0.000396,53.2151,321.3947,4.862,172.2533,-5.6847e-05,-8.606e-05,0.0,0 STARLINK-5199,1 54201U 22141AW  22337.91667824 -.00008606  00000-0 -56847-4 0  9998,2 54201  53.2151 321.3947 0003960   4.8620 172.2533 15.73223666  6064,6727.828,91.532,352.357,347.028,0.0
54201.0,STARLINK-5199,PAYLOAD,2022-12-04 14:00:01,15.73195787,0.0004117,53.2142,318.0969,4.8559,350.1536,0.00017449,0.0002394,0.0,0 STARLINK-5199,1 54201U 22141AW  22338.58334491  .00023940  00000-0  17449-3 0  9993,2 54201  53.2142 318.0969 0004117   4.8559 350.1536 15.73195787  1301,6727.906999999997,91.533,352.542,347.00199999999984,0.0
54201.0,STARLINK-5199,PAYLOAD,2022-12-04 22:00:00,15.73250236,0.0003849,53.2145,316.4459,4.1535,79.7859,-0.00042778,-0.00060388,0.0,0 STARLINK-5199,1 54201U 22141AW  22338.91667824 -.00060388  00000-0 -42778-3 0  9991,2 54201  53.2145 316.4459 0003849   4.1535  79.7859 15.73250236  1301,6727.752,91.53,352.206,347.027,0.0
54201.0,STARLINK-5199,PAYLOAD,2022-12-05 06:00:00,15.73170308,0.0004116,53.2146,314.7981,1.2896,171.627,0.00017554,0.00024061,0.0,0 STARLINK-5199,1 54201U 22141AW  22339.25001157  .00024061  00000-0  17554-3 0  9990,2 54201  53.2146 314.7981 0004116   1.2896 171.6270 15.73170308  6270,6727.98,91.535,352.61400000000015,347.076,0.0
54201.0,STARLINK-5199,PAYLOAD,2022-12-05 14:00:01,15.73208331,0.0004085,53.2146,313.1477,1.1122,260.7623,0.00018755,0.00025798,0.0,0 STARLINK-5199,1 54201U 22141AW  22339.58335648  .00025798  00000-0  18755-3 0  9993,2 54201  53.2146 313.1477 0004085   1.1122 260.7623 15.73208331  1308,6727.871,91.533,352.485,346.98800000000006,0.0
54201.0,STARLINK-5199,PAYLOAD,2022-12-05 15:56:28,15.73201791,0.0004175,53.2152,312.7472,5.9693,354.1376,-1.8098e-05,-3.166e-05,0.0,0 STARLINK-5199,1 54201U 22141AW  22339.66422045 -.00003166  00000-0 -18098-4 0  9998,2 54201  53.2152 312.7472 0004175   5.9693 354.1376 15.73201791  6110,6727.89,91.533,352.564,346.946,0.0
54201.0,STARLINK-5199,PAYLOAD,2022-12-06 07:11:15,15.73229483,0.000421,53.2158,309.6028,8.3335,351.7754,4.3559e-05,5.502e-05,0.0,0 STARLINK-5199,1 54201U 22141AW  22340.29948403  .00005502  00000-0  43559-4 0  9994,2 54201  53.2158 309.6028 0004210   8.3335 351.7754 15.73229483  6445,6727.811,91.531,352.509,346.844,0.0
